STARLINK-32778          
1 62603U 25008S   26068.00191385  .00035601  00000+0  12959-2 0  9993
2 62603  43.0038 282.2901 0002498 277.9089  82.1479 15.27606177 65459
COSMOS 2588             
1 64095U 25109A   26068.81179522  .00009169  00000+0  32611-3 0  9998
2 64095  72.9704  73.5401 0005019 308.6780  51.3966 15.29122656 44425
